[
    {
        "Altitude(m)": 612513.920233643,
        "Argument of Periapsis(deg)": 0.0,
        "Eccentricity": 0.0,
        "Inclination(deg)": 60.0,
        "Latitude(deg)": -28.135926450973724,
        "Longitude(deg)": 172.91306260432586,
        "Mean Anomaly(deg)": 212.7273,
        "RAAN(deg)": 75.0,
        "Satellite Name": "Test1 343",
        "Satellite Number": 343,
        "Semi-Major Axis(m)": 6980739.136638005,
        "Time(s)": 0
    },
    {
        "Altitude(m)": 612708.2882666589,
        "Argument of Periapsis(deg)": 0.00010418945913296404,
        "Eccentricity": 0.0,
        "Inclination(deg)": 60.0,
        "Latitude(deg)": -28.64766622947115,
        "Longitude(deg)": 173.27029172932714,
        "Mean Anomaly(deg)": 213.34740614546183,
        "RAAN(deg)": 74.99957995086027,
        "Satellite Name": "Test1 343",
        "Satellite Number": 343,
        "Semi-Major Axis(m)": 6980739.136638005,
        "Time(s)": 10
    }
]